EARTHCARE               
1 59908U 24101A   24172.95709662  .00013523  00000+0  20934-3 0  9993
2 59908  96.9805 300.6431 0005301  96.2562 263.9297 15.54146124  3572
